OBJECT_NAME,OBJECT_ID,EPOCH,MEAN_MOTION,ECCENTRICITY,INCLINATION,RA_OF_ASC_NODE,ARG_OF_PERICENTER,MEAN_ANOMALY,EPHEMERIS_TYPE,CLASSIFICATION_TYPE,NORAD_CAT_ID,ELEMENT_SET_NO,REV_AT_EPOCH,BSTAR,MEAN_MOTION_DOT,MEAN_MOTION_DDOT
STARLINK-5233,2022-141D,2026-07-10T06:00:02.000160,15.17385413,.00002475,53.1601,138.5181,148.6471,202.3860,0,U,54160,999,572,.3451543E-2,.7016E-3,0
STARLINK-5269,2022-141E,2026-07-10T06:00:02.000160,15.18463726,.00016139,53.1605,183.6076,125.1890,137.8298,0,U,54161,999,575,.11385044E-2,.23507E-3,0
STARLINK-5273,2022-141F,2026-07-10T00:18:19.135872,15.08834489,.0001347,53.1591,184.7717,75.7147,284.3994,0,U,54162,999,20418,.45055384E-4,.429E-5,0
STARLINK-5161,2022-141G,2026-07-10T06:00:02.000160,15.34418515,.00014239,53.1599,171.4650,77.2232,221.1816,0,U,54163,999,575,.38197369E-3,.12558E-3,0
STARLINK-5278,2022-141H,2026-07-10T06:00:02.000160,15.34386724,.00010621,53.1595,171.6904,74.7636,107.3208,0,U,54164,999,575,.15807621E-3,.4966E-4,0
STARLINK-5279,2022-141J,2026-07-10T00:13:00.960096,15.08834810,.00012088,53.1593,184.7504,83.1251,276.9878,0,U,54165,999,20418,.37678875E-4,.312E-5,0
STARLINK-5280,2022-141K,2026-07-10T06:00:02.000160,15.35399577,.0001217,53.1591,171.8286,83.9010,26.9675,0,U,54166,999,580,.54603907E-4,.1525E-4,0
STARLINK-5243,2022-141L,2026-07-09T17:24:57.773088,15.08826088,.00014316,53.1589,185.8253,85.9689,274.1466,0,U,54167,999,20414,.71465099E-4,.849E-5,0
STARLINK-5245,2022-141M,2026-07-10T06:00:02.000160,15.35398676,.0001418,53.1591,171.8699,97.3034,353.9190,0,U,54168,999,572,-.13397437E-4,-.848E-5,0
STARLINK-5282,2022-141N,2026-07-10T06:00:02.000160,15.32625507,.00019493,53.1599,171.8342,71.5257,38.2778,0,U,54169,999,580,.34641702E-1,.12038E-1,0
STARLINK-5155,2022-141P,2026-07-10T06:00:02.000160,15.35393044,.00013358,53.1604,171.5908,75.9750,158.4069,0,U,54170,999,564,.19318426E-3,.6362E-4,0
STARLINK-5117,2022-141R,2026-07-10T07:36:02.435040,15.33538488,.00012288,53.1614,171.0463,89.1404,270.9739,0,U,54172,999,20440,.83739245E-4,.2381E-4,0
STARLINK-5242,2022-141S,2026-07-10T06:00:02.000160,15.35284377,.00013216,53.1601,171.6534,68.8160,130.9915,0,U,54173,999,580,.16959788E-2,.59023E-3,0
STARLINK-5248,2022-141T,2026-07-10T06:00:02.000160,15.13987400,.0001957,53.1594,118.3468,72.1003,22.2558,0,U,54174,999,565,.4268816E-2,.7894E-3,0
STARLINK-5256,2022-141U,2026-07-10T06:00:02.000160,15.33542398,.00014365,53.1603,171.6356,74.3861,136.1277,0,U,54175,999,579,.16090022E-3,.4921E-4,0
STARLINK-5154,2022-141V,2026-07-09T15:32:33.866016,15.34401383,.00008473,53.1597,173.9865,69.7191,290.3903,0,U,54176,999,20430,.94421873E-4,.2816E-4,0
STARLINK-5186,2022-141W,2026-07-10T06:00:02.000160,15.34362026,.00017247,53.1602,171.5090,71.7881,203.2754,0,U,54177,999,574,.17658497E-3,.5587E-4,0
STARLINK-5164,2022-141X,2026-07-10T06:00:02.000160,15.34390007,.00013503,53.1599,171.4662,61.7646,224.9600,0,U,54178,999,573,.99765531E-4,.2995E-4,0
STARLINK-5122,2022-141Y,2026-07-10T06:00:02.000160,15.35401585,.00011172,53.1588,171.3450,83.0505,276.1507,0,U,54179,999,579,.5353083E-4,.1487E-4,0
STARLINK-5227,2022-141AA,2026-07-10T06:00:02.000160,15.35388032,.00012219,53.1605,171.6159,79.9042,139.7169,0,U,54181,999,574,.17402952E-3,.5692E-4,0
STARLINK-5231,2022-141AB,2026-07-08T07:24:43.878816,15.08825793,.00013109,53.1594,152.0506,85.8984,274.2158,0,U,54182,999,20449,.56858119E-4,.617E-5,0
STARLINK-5239,2022-141AC,2026-07-10T06:00:02.000160,15.35336374,.0001814,53.1610,171.6095,67.3146,156.6717,0,U,54183,999,580,.12644535E-2,.43894E-3,0
STARLINK-5162,2022-141AD,2026-07-10T06:00:02.000160,15.29844644,.0000625,53.1587,172.7094,70.9892,301.4518,0,U,54184,999,580,.20805332E-2,.61091E-3,0
STARLINK-5235,2022-141AE,2026-07-10T06:00:02.000160,15.35392821,.00016375,53.1607,171.5641,88.2976,157.2627,0,U,54185,999,580,.21824988E-3,.7238E-4,0
STARLINK-5240,2022-141AG,2026-07-10T06:00:02.000160,15.35386707,.00016157,53.1599,171.6969,89.5712,92.6496,0,U,54187,999,534,.29248738E-3,.9831E-4,0
STARLINK-5238,2022-141AH,2026-07-10T06:00:02.000160,15.12319293,.00017148,53.1603,163.8285,66.5602,103.9806,0,U,54188,999,574,.22696668E-2,.39692E-3,0
STARLINK-5281,2022-141AK,2026-07-09T08:32:26.704032,15.08829740,.00012629,53.1591,167.8306,83.1595,276.9540,0,U,54190,999,20436,.18273975E-4,.3E-7,0
STARLINK-4619,2022-141AL,2026-07-10T06:00:02.000160,15.12293737,.00009386,53.1582,163.9070,62.6120,70.5628,0,U,54191,999,575,.19257865E-2,.3358E-3,0
STARLINK-5268,2022-141AM,2026-07-09T15:36:19.406304,15.08830456,.00014091,53.1598,166.1138,85.9109,274.2043,0,U,54192,999,20441,.42210598E-4,.384E-5,0
STARLINK-5263,2022-141AN,2026-07-08T16:27:57.233376,15.08827829,.0000467,53.1595,170.7627,56.4826,303.6210,0,U,54193,999,20426,.8302271E-5,-.155E-5,0
