STARLINK-5233           
1 54160U 22141D   26191.25002315  .00070160  00000+0  34515-2 0  9996
2 54160  53.1601 138.5181 0000247 148.6471 202.3860 15.17385413  5728
STARLINK-5269           
1 54161U 22141E   26191.25002315  .00023507  00000+0  11385-2 0  9990
2 54161  53.1605 183.6076 0001613 125.1890 137.8298 15.18463726  5755
STARLINK-5273           
1 54162U 22141F   26191.01272148  .00000429  00000+0  45055-4 0  9999
2 54162  53.1591 184.7717 0001347  75.7147 284.3994 15.08834489204189
STARLINK-5161           
1 54163U 22141G   26191.25002315  .00012558  00000+0  38197-3 0  9997
2 54163  53.1599 171.4650 0001423  77.2232 221.1816 15.34418515  5755
STARLINK-5278           
1 54164U 22141H   26191.25002315  .00004966  00000+0  15808-3 0  9996
2 54164  53.1595 171.6904 0001062  74.7636 107.3208 15.34386724  5751
STARLINK-5279           
1 54165U 22141J   26191.00903889  .00000312  00000+0  37679-4 0  9998
2 54165  53.1593 184.7504 0001208  83.1251 276.9878 15.08834810204189
STARLINK-5280           
1 54166U 22141K   26191.25002315  .00001525  00000+0  54604-4 0  9994
2 54166  53.1591 171.8286 0001217  83.9010  26.9675 15.35399577  5805
STARLINK-5243           
1 54167U 22141L   26190.72566867  .00000849  00000+0  71465-4 0  9995
2 54167  53.1589 185.8253 0001431  85.9689 274.1466 15.08826088204149
STARLINK-5245           
1 54168U 22141M   26191.25002315 -.00000848  00000+0 -13397-4 0  9999
2 54168  53.1591 171.8699 0001418  97.3034 353.9190 15.35398676  5728
STARLINK-5282           
1 54169U 22141N   26191.25002315  .01203800  00000+0  34642-1 0  9995
2 54169  53.1599 171.8342 0001949  71.5257  38.2778 15.32625507  5809
STARLINK-5155           
1 54170U 22141P   26191.25002315  .00006362  00000+0  19318-3 0  9995
2 54170  53.1604 171.5908 0001335  75.9750 158.4069 15.35393044  5649
STARLINK-5117           
1 54172U 22141R   26191.31669485  .00002381  00000+0  83739-4 0  9997
2 54172  53.1614 171.0463 0001228  89.1404 270.9739 15.33538488204407
STARLINK-5242           
1 54173U 22141S   26191.25002315  .00059023  00000+0  16960-2 0  9999
2 54173  53.1601 171.6534 0001321  68.8160 130.9915 15.35284377  5807
STARLINK-5248           
1 54174U 22141T   26191.25002315  .00078940  00000+0  42688-2 0  9995
2 54174  53.1594 118.3468 0001957  72.1003  22.2558 15.13987400  5654
STARLINK-5256           
1 54175U 22141U   26191.25002315  .00004921  00000+0  16090-3 0  9993
2 54175  53.1603 171.6356 0001436  74.3861 136.1277 15.33542398  5795
STARLINK-5154           
1 54176U 22141V   26190.64761419  .00002816  00000+0  94422-4 0  9990
2 54176  53.1597 173.9865 0000847  69.7191 290.3903 15.34401383204303
STARLINK-5186           
1 54177U 22141W   26191.25002315  .00005587  00000+0  17658-3 0  9995
2 54177  53.1602 171.5090 0001724  71.7881 203.2754 15.34362026  5743
STARLINK-5164           
1 54178U 22141X   26191.25002315  .00002995  00000+0  99766-4 0  9997
2 54178  53.1599 171.4662 0001350  61.7646 224.9600 15.34390007  5735
STARLINK-5122           
1 54179U 22141Y   26191.25002315  .00001487  00000+0  53531-4 0  9993
2 54179  53.1588 171.3450 0001117  83.0505 276.1507 15.35401585  5796
STARLINK-5227           
1 54181U 22141AA  26191.25002315  .00005692  00000+0  17403-3 0  9995
2 54181  53.1605 171.6159 0001221  79.9042 139.7169 15.35388032  5748
STARLINK-5231           
1 54182U 22141AB  26189.30884119  .00000617  00000+0  56858-4 0  9999
2 54182  53.1594 152.0506 0001310  85.8984 274.2158 15.08825793204491
STARLINK-5239           
1 54183U 22141AC  26191.25002315  .00043894  00000+0  12645-2 0  9995
2 54183  53.1610 171.6095 0001814  67.3146 156.6717 15.35336374  5805
STARLINK-5162           
1 54184U 22141AD  26191.25002315  .00061091  00000+0  20805-2 0  9992
2 54184  53.1587 172.7094 0000625  70.9892 301.4518 15.29844644  5803
STARLINK-5235           
1 54185U 22141AE  26191.25002315  .00007238  00000+0  21825-3 0  9990
2 54185  53.1607 171.5641 0001637  88.2976 157.2627 15.35392821  5801
STARLINK-5240           
1 54187U 22141AG  26191.25002315  .00009831  00000+0  29249-3 0  9991
2 54187  53.1599 171.6969 0001615  89.5712  92.6496 15.35386707  5346
STARLINK-5238           
1 54188U 22141AH  26191.25002315  .00039692  00000+0  22697-2 0  9999
2 54188  53.1603 163.8285 0001714  66.5602 103.9806 15.12319293  5746
STARLINK-5281           
1 54190U 22141AK  26190.35586463  .00000003  00000+0  18274-4 0  9995
2 54190  53.1591 167.8306 0001262  83.1595 276.9540 15.08829740204360
STARLINK-4619           
1 54191U 22141AL  26191.25002315  .00033580  00000+0  19258-2 0  9992
2 54191  53.1582 163.9070 0000938  62.6120  70.5628 15.12293737  5754
STARLINK-5268           
1 54192U 22141AM  26190.65022461  .00000384  00000+0  42211-4 0  9993
2 54192  53.1598 166.1138 0001409  85.9109 274.2043 15.08830456204419
STARLINK-5263           
1 54193U 22141AN  26189.68607909 -.00000155  00000+0  83023-5 0  9995
2 54193  53.1595 170.7627 0000467  56.4826 303.6210 15.08827829204269
